COSMOS 2251 DEB         
1 33784U 93036Z   17345.69723351  .00000862  00000-0  16377-3 0  9995
2 33784  74.2037  77.4285 0054641  77.7557  33.8620 14.64775128469399
